KUIPER-00095            
1 65134U 25171C   25257.23772770  .00011168  00000+0  32626-3 0  9999
2 65134  51.8752 242.1594 0004139 278.1926  81.8590 15.35788418  6432
KUIPER-00096            
1 65135U 25171D   25257.23221794  .00041531  00000+0  11661-2 0  9997
2 65135  51.8759 242.1215 0002681 254.3089 105.7602 15.36132733  6430
KUIPER-00097            
1 65136U 25171E   25257.23920188  .00022754  00000+0  65528-3 0  9999
2 65136  51.8749 242.1751 0003868 279.4624  80.5924 15.35651840  6426
KUIPER-00098            
1 65137U 25171F   25257.22459111  .00029001  00000+0  81322-3 0  9994
2 65137  51.8775 242.0774 0004105 234.2465 125.8140 15.36346940  5770
KUIPER-00099            
1 65138U 25171G   25257.22698060  .00035701  00000+0  99805-3 0  9992
2 65138  51.8772 242.0954 0003823 241.9893 118.0707 15.36337864  6425
KUIPER-00100            
1 65139U 25171H   25257.23145635  .00042782  00000+0  12027-2 0  9996
2 65139  51.8761 242.1172 0003439 257.2859 102.7743 15.36079636  6422
KUIPER-00102            
1 65140U 25171J   25257.23822402  .00012637  00000+0  36852-3 0  9991
2 65140  51.8749 242.1600 0003883 276.4613  83.5931 15.35714026  6423
KUIPER-00103            
1 65141U 25171K   25257.23360711  .00043741  00000+0  12309-2 0  9992
2 65141  51.8748 242.1293 0003125 258.0632 102.0004 15.36039461  6429
