<?xml version="1.0" encoding="UTF-8"?>
<ndm xmlns:xsi="http://www.w3.org/2001/XMLSchema-instance" xsi:noNamespaceSchemaLocation="https://sanaregistry.org/r/ndmxml_unqualified/ndmxml-2.0.0-master-2.0.xsd">
<omm id="CCSDS_OMM_VERS" version="2.0">
<header><CREATION_DATE/><ORIGINATOR/></header><body><segment><metadata><OBJECT_NAME>KUIPER-00095</OBJECT_NAME><OBJECT_ID>2025-171C</OBJECT_ID><CENTER_NAME>EARTH</CENTER_NAME><REF_FRAME>TEME</REF_FRAME><TIME_SYSTEM>UTC</TIME_SYSTEM><MEAN_ELEMENT_THEORY>SGP4</MEAN_ELEMENT_THEORY></metadata><data><meanElements><EPOCH>2025-09-14T05:42:19.673280</EPOCH><MEAN_MOTION>15.35788418</MEAN_MOTION><ECCENTRICITY>.00041397</ECCENTRICITY><INCLINATION>51.8752</INCLINATION><RA_OF_ASC_NODE>242.1594</RA_OF_ASC_NODE><ARG_OF_PERICENTER>278.1926</ARG_OF_PERICENTER><MEAN_ANOMALY>81.8590</MEAN_ANOMALY></meanElements><tleParameters><EPHEMERIS_TYPE>0</EPHEMERIS_TYPE><CLASSIFICATION_TYPE>U</CLASSIFICATION_TYPE><NORAD_CAT_ID>65134</NORAD_CAT_ID><ELEMENT_SET_NO>999</ELEMENT_SET_NO><REV_AT_EPOCH>643</REV_AT_EPOCH><BSTAR>.32626189E-3</BSTAR><MEAN_MOTION_DOT>.11168E-3</MEAN_MOTION_DOT><MEAN_MOTION_DDOT>0</MEAN_MOTION_DDOT></tleParameters></data></segment></body></omm>
<omm id="CCSDS_OMM_VERS" version="2.0">
<header><CREATION_DATE/><ORIGINATOR/></header><body><segment><metadata><OBJECT_NAME>KUIPER-00096</OBJECT_NAME><OBJECT_ID>2025-171D</OBJECT_ID><CENTER_NAME>EARTH</CENTER_NAME><REF_FRAME>TEME</REF_FRAME><TIME_SYSTEM>UTC</TIME_SYSTEM><MEAN_ELEMENT_THEORY>SGP4</MEAN_ELEMENT_THEORY></metadata><data><meanElements><EPOCH>2025-09-14T05:34:23.630016</EPOCH><MEAN_MOTION>15.36132733</MEAN_MOTION><ECCENTRICITY>.00026816</ECCENTRICITY><INCLINATION>51.8759</INCLINATION><RA_OF_ASC_NODE>242.1215</RA_OF_ASC_NODE><ARG_OF_PERICENTER>254.3089</ARG_OF_PERICENTER><MEAN_ANOMALY>105.7602</MEAN_ANOMALY></meanElements><tleParameters><EPHEMERIS_TYPE>0</EPHEMERIS_TYPE><CLASSIFICATION_TYPE>U</CLASSIFICATION_TYPE><NORAD_CAT_ID>65135</NORAD_CAT_ID><ELEMENT_SET_NO>999</ELEMENT_SET_NO><REV_AT_EPOCH>643</REV_AT_EPOCH><BSTAR>.11661379E-2</BSTAR><MEAN_MOTION_DOT>.41531E-3</MEAN_MOTION_DOT><MEAN_MOTION_DDOT>0</MEAN_MOTION_DDOT></tleParameters></data></segment></body></omm>
<omm id="CCSDS_OMM_VERS" version="2.0">
<header><CREATION_DATE/><ORIGINATOR/></header><body><segment><metadata><OBJECT_NAME>KUIPER-00097</OBJECT_NAME><OBJECT_ID>2025-171E</OBJECT_ID><CENTER_NAME>EARTH</CENTER_NAME><REF_FRAME>TEME</REF_FRAME><TIME_SYSTEM>UTC</TIME_SYSTEM><MEAN_ELEMENT_THEORY>SGP4</MEAN_ELEMENT_THEORY></metadata><data><meanElements><EPOCH>2025-09-14T05:44:27.042432</EPOCH><MEAN_MOTION>15.35651840</MEAN_MOTION><ECCENTRICITY>.00038687</ECCENTRICITY><INCLINATION>51.8749</INCLINATION><RA_OF_ASC_NODE>242.1751</RA_OF_ASC_NODE><ARG_OF_PERICENTER>279.4624</ARG_OF_PERICENTER><MEAN_ANOMALY>80.5924</MEAN_ANOMALY></meanElements><tleParameters><EPHEMERIS_TYPE>0</EPHEMERIS_TYPE><CLASSIFICATION_TYPE>U</CLASSIFICATION_TYPE><NORAD_CAT_ID>65136</NORAD_CAT_ID><ELEMENT_SET_NO>999</ELEMENT_SET_NO><REV_AT_EPOCH>642</REV_AT_EPOCH><BSTAR>.65527706E-3</BSTAR><MEAN_MOTION_DOT>.22754E-3</MEAN_MOTION_DOT><MEAN_MOTION_DDOT>0</MEAN_MOTION_DDOT></tleParameters></data></segment></body></omm>
<omm id="CCSDS_OMM_VERS" version="2.0">
<header><CREATION_DATE/><ORIGINATOR/></header><body><segment><metadata><OBJECT_NAME>KUIPER-00098</OBJECT_NAME><OBJECT_ID>2025-171F</OBJECT_ID><CENTER_NAME>EARTH</CENTER_NAME><REF_FRAME>TEME</REF_FRAME><TIME_SYSTEM>UTC</TIME_SYSTEM><MEAN_ELEMENT_THEORY>SGP4</MEAN_ELEMENT_THEORY></metadata><data><meanElements><EPOCH>2025-09-14T05:23:24.671904</EPOCH><MEAN_MOTION>15.36346940</MEAN_MOTION><ECCENTRICITY>.00041055</ECCENTRICITY><INCLINATION>51.8775</INCLINATION><RA_OF_ASC_NODE>242.0774</RA_OF_ASC_NODE><ARG_OF_PERICENTER>234.2465</ARG_OF_PERICENTER><MEAN_ANOMALY>125.8140</MEAN_ANOMALY></meanElements><tleParameters><EPHEMERIS_TYPE>0</EPHEMERIS_TYPE><CLASSIFICATION_TYPE>U</CLASSIFICATION_TYPE><NORAD_CAT_ID>65137</NORAD_CAT_ID><ELEMENT_SET_NO>999</ELEMENT_SET_NO><REV_AT_EPOCH>577</REV_AT_EPOCH><BSTAR>.81321679E-3</BSTAR><MEAN_MOTION_DOT>.29001E-3</MEAN_MOTION_DOT><MEAN_MOTION_DDOT>0</MEAN_MOTION_DDOT></tleParameters></data></segment></body></omm>
<omm id="CCSDS_OMM_VERS" version="2.0">
<header><CREATION_DATE/><ORIGINATOR/></header><body><segment><metadata><OBJECT_NAME>KUIPER-00099</OBJECT_NAME><OBJECT_ID>2025-171G</OBJECT_ID><CENTER_NAME>EARTH</CENTER_NAME><REF_FRAME>TEME</REF_FRAME><TIME_SYSTEM>UTC</TIME_SYSTEM><MEAN_ELEMENT_THEORY>SGP4</MEAN_ELEMENT_THEORY></metadata><data><meanElements><EPOCH>2025-09-14T05:26:51.123840</EPOCH><MEAN_MOTION>15.36337864</MEAN_MOTION><ECCENTRICITY>.00038237</ECCENTRICITY><INCLINATION>51.8772</INCLINATION><RA_OF_ASC_NODE>242.0954</RA_OF_ASC_NODE><ARG_OF_PERICENTER>241.9893</ARG_OF_PERICENTER><MEAN_ANOMALY>118.0707</MEAN_ANOMALY></meanElements><tleParameters><EPHEMERIS_TYPE>0</EPHEMERIS_TYPE><CLASSIFICATION_TYPE>U</CLASSIFICATION_TYPE><NORAD_CAT_ID>65138</NORAD_CAT_ID><ELEMENT_SET_NO>999</ELEMENT_SET_NO><REV_AT_EPOCH>642</REV_AT_EPOCH><BSTAR>.99804689E-3</BSTAR><MEAN_MOTION_DOT>.35701E-3</MEAN_MOTION_DOT><MEAN_MOTION_DDOT>0</MEAN_MOTION_DDOT></tleParameters></data></segment></body></omm>
<omm id="CCSDS_OMM_VERS" version="2.0">
<header><CREATION_DATE/><ORIGINATOR/></header><body><segment><metadata><OBJECT_NAME>KUIPER-00100</OBJECT_NAME><OBJECT_ID>2025-171H</OBJECT_ID><CENTER_NAME>EARTH</CENTER_NAME><REF_FRAME>TEME</REF_FRAME><TIME_SYSTEM>UTC</TIME_SYSTEM><MEAN_ELEMENT_THEORY>SGP4</MEAN_ELEMENT_THEORY></metadata><data><meanElements><EPOCH>2025-09-14T05:33:17.828640</EPOCH><MEAN_MOTION>15.36079636</MEAN_MOTION><ECCENTRICITY>.00034398</ECCENTRICITY><INCLINATION>51.8761</INCLINATION><RA_OF_ASC_NODE>242.1172</RA_OF_ASC_NODE><ARG_OF_PERICENTER>257.2859</ARG_OF_PERICENTER><MEAN_ANOMALY>102.7743</MEAN_ANOMALY></meanElements><tleParameters><EPHEMERIS_TYPE>0</EPHEMERIS_TYPE><CLASSIFICATION_TYPE>U</CLASSIFICATION_TYPE><NORAD_CAT_ID>65139</NORAD_CAT_ID><ELEMENT_SET_NO>999</ELEMENT_SET_NO><REV_AT_EPOCH>642</REV_AT_EPOCH><BSTAR>.12027198E-2</BSTAR><MEAN_MOTION_DOT>.42782E-3</MEAN_MOTION_DOT><MEAN_MOTION_DDOT>0</MEAN_MOTION_DDOT></tleParameters></data></segment></body></omm>
<omm id="CCSDS_OMM_VERS" version="2.0">
<header><CREATION_DATE/><ORIGINATOR/></header><body><segment><metadata><OBJECT_NAME>KUIPER-00102</OBJECT_NAME><OBJECT_ID>2025-171J</OBJECT_ID><CENTER_NAME>EARTH</CENTER_NAME><REF_FRAME>TEME</REF_FRAME><TIME_SYSTEM>UTC</TIME_SYSTEM><MEAN_ELEMENT_THEORY>SGP4</MEAN_ELEMENT_THEORY></metadata><data><meanElements><EPOCH>2025-09-14T05:43:02.555328</EPOCH><MEAN_MOTION>15.35714026</MEAN_MOTION><ECCENTRICITY>.00038838</ECCENTRICITY><INCLINATION>51.8749</INCLINATION><RA_OF_ASC_NODE>242.1600</RA_OF_ASC_NODE><ARG_OF_PERICENTER>276.4613</ARG_OF_PERICENTER><MEAN_ANOMALY>83.5931</MEAN_ANOMALY></meanElements><tleParameters><EPHEMERIS_TYPE>0</EPHEMERIS_TYPE><CLASSIFICATION_TYPE>U</CLASSIFICATION_TYPE><NORAD_CAT_ID>65140</NORAD_CAT_ID><ELEMENT_SET_NO>999</ELEMENT_SET_NO><REV_AT_EPOCH>642</REV_AT_EPOCH><BSTAR>.36852295E-3</BSTAR><MEAN_MOTION_DOT>.12637E-3</MEAN_MOTION_DOT><MEAN_MOTION_DDOT>0</MEAN_MOTION_DDOT></tleParameters></data></segment></body></omm>
<omm id="CCSDS_OMM_VERS" version="2.0">
<header><CREATION_DATE/><ORIGINATOR/></header><body><segment><metadata><OBJECT_NAME>KUIPER-00103</OBJECT_NAME><OBJECT_ID>2025-171K</OBJECT_ID><CENTER_NAME>EARTH</CENTER_NAME><REF_FRAME>TEME</REF_FRAME><TIME_SYSTEM>UTC</TIME_SYSTEM><MEAN_ELEMENT_THEORY>SGP4</MEAN_ELEMENT_THEORY></metadata><data><meanElements><EPOCH>2025-09-14T05:36:23.654304</EPOCH><MEAN_MOTION>15.36039461</MEAN_MOTION><ECCENTRICITY>.00031256</ECCENTRICITY><INCLINATION>51.8748</INCLINATION><RA_OF_ASC_NODE>242.1293</RA_OF_ASC_NODE><ARG_OF_PERICENTER>258.0632</ARG_OF_PERICENTER><MEAN_ANOMALY>102.0004</MEAN_ANOMALY></meanElements><tleParameters><EPHEMERIS_TYPE>0</EPHEMERIS_TYPE><CLASSIFICATION_TYPE>U</CLASSIFICATION_TYPE><NORAD_CAT_ID>65141</NORAD_CAT_ID><ELEMENT_SET_NO>999</ELEMENT_SET_NO><REV_AT_EPOCH>642</REV_AT_EPOCH><BSTAR>.12309115E-2</BSTAR><MEAN_MOTION_DOT>.43741E-3</MEAN_MOTION_DOT><MEAN_MOTION_DDOT>0</MEAN_MOTION_DDOT></tleParameters></data></segment></body></omm>

</ndm>
